{
  "type": "FeatureCollection",
  "name": "comuniste nealiniate",
  "crs": {
    "type": "name",
    "properties": {
      "name": "urn:ogc:def:crs:OGC:1.3:CRS84"
    }
  },
  "features": [
    {
      "type": "Feature",
      "properties": {
        "nume": "Albania",
        "bloc": "Nealiniat",
        "info": "Republica Populara Socialista Albania, condusa de Enver Hoxha. Comunista, dar rupta de URSS (1961); s-a aliat cu China, apoi s-a izolat aproape complet.",
        "imagine": "img/albania.jpg"
      },
      "geometry": {
        "type": "MultiPolygon",
        "coordinates": [
          [
            [
              [
                20.122382196990234,
                39.551009736970705
              ],
              [
                20.090828928557617,
                39.60253103824024
              ],
              [
                20.028559717742187,
                39.81378134341602
              ],
              [
                19.803648981658203,
                40.016963563875
              ],
              [
                19.369067225066406,
                40.26028021426563
              ],
              [
                19.38022521456836,
                40.32358130069141
              ],
              [
                19.483712229338867,
                40.29589041324024
              ],
              [
                19.49448302706836,
                40.4027171954668
              ],
              [
                19.33922294100879,
                40.58873709292774
              ],
              [
                19.527255091277343,
                40.865890108064455
              ],
              [
                19.445403132048828,
                40.96489676089649
              ],
              [
                19.529950174895507,
                41.21844442935352
              ],
              [
                19.416991266814453,
                41.345252595857424
              ],
              [
                19.498915705291015,
                41.52362021060352
              ],
              [
                19.619383844939453,
                41.559302888826174
              ],
              [
                19.60696509799121,
                41.761539064363284
              ],
              [
                19.457886728850585,
                41.79808386416797
              ],
              [
                19.36771300753711,
                41.84637030215625
              ],
              [
                19.368660959807617,
                42.000342927888674
              ],
              [
                19.30881408175586,
                42.19264944644336
              ],
              [
                19.434618982878906,
                42.424571596101565
              ],
              [
                19.557698282805664,
                42.54732855410938
              ],
              [
                19.88456061801074,
                42.49771078677539
              ],
              [
                20.047053370085937,
                42.48752173037891
              ],
              [
                20.072997126189453,
                42.48589285464649
              ],
              [
                20.245184931365234,
                42.319800935701174
              ],
              [
                20.574980768767578,
                41.92991217227344
              ],
              [
                20.582966837493164,
                41.880714021638674
              ],
              [
                20.59892180880664,
                41.782420717195315
              ],
              [
                20.539563212004882,
                41.58959158511524
              ],
              [
                20.572821650115234,
                41.301143251375
              ],
              [
                20.7069750162041,
                41.00056418033008
              ],
              [
                21.031638178435546,
                40.726790986970705
              ],
              [
                20.99117377719043,
                40.7137523517168
              ],
              [
                20.78894523104785,
                40.33477362246875
              ],
              [
                20.60791495761035,
                40.16091497989063
              ],
              [
                20.38468078097461,
                39.948566041902346
              ],
              [
                20.122382196990234,
                39.551009736970705
              ]
            ]
          ]
        ]
      }
    },
    {
      "type": "Feature",
      "properties": {
        "nume": "Iugoslavia",
        "bloc": "Nealiniat",
        "info": "Republica Socialista Federativa Iugoslavia, condusa de Iosip Broz Tito. Comunista, dar independenta de Moscova din 1948 si lider al Miscarii de Nealiniere.",
        "imagine": "img/iugoslavia.jpg"
      },
      "geometry": {
        "type": "MultiPolygon",
        "coordinates": [
          [
            [
              [
                13.835831803687253,
                45.57881529869216
              ],
              [
                13.915591111533834,
                45.62903597703889
              ],
              [
                13.817221298523046,
                45.725630618116504
              ],
              [
                13.599212523742379,
                45.80723431137194
              ],
              [
                13.588577949362836,
                45.8813159000594
              ],
              [
                13.641750821260558,
                45.983017014862014
              ],
              [
                13.601871167337265,
                45.984864399857436
              ],
              [
                13.548698295439543,
                45.96084358641268
              ],
              [
                13.479573561972499,
                45.999641260545616
              ],
              [
                13.498184067136705,
                46.05132920396729
              ],
              [
                13.670995900804305,
                46.17481489990558
              ],
              [
                13.500842710731588,
                46.218981278032395
              ],
              [
                13.421083402885007,
                46.20426309626215
              ],
              [
                13.378545105366827,
                46.292513026263904
              ],
              [
                13.447669838833868,
                46.32006201277816
              ],
              [
                13.437035264454325,
                46.35677242866562
              ],
              [
                13.554015582629315,
                46.38428906679006
              ],
              [
                13.58591930576795,
                46.43011932500156
              ],
              [
                13.692265049563394,
                46.43744859306148
              ],
              [
                13.708912709136243,
                46.50163505804842
              ],
              [
                14.036648783293945,
                46.48105963321094
              ],
              [
                14.117423090544921,
                46.43291815371875
              ],
              [
                14.14818848806133,
                46.4333658347332
              ],
              [
                14.392945322600585,
                46.436927400544924
              ],
              [
                14.521769556609375,
                46.36872824283008
              ],
              [
                14.81286052188037,
                46.59343298526172
              ],
              [
                15.067858728972656,
                46.64159353824024
              ],
              [
                15.450037035552246,
                46.6054759845293
              ],
              [
                15.583985361663085,
                46.69379385562305
              ],
              [
                15.984578165618164,
                46.64159353824024
              ],
              [
                15.947394404021484,
                46.81826742740039
              ],
              [
                16.25957396945117,
                46.888804994539065
              ],
              [
                16.39636710604785,
                46.62312277408008
              ],
              [
                16.560086283293945,
                46.47294195742969
              ],
              [
                16.656750712004882,
                46.38426931949024
              ],
              [
                17.292401346770507,
                46.10867651553516
              ],
              [
                17.794407877532226,
                45.806651674226565
              ],
              [
                18.055813822356445,
                45.762698732332034
              ],
              [
                18.356125864592773,
                45.78375967593555
              ],
              [
                18.55100158175586,
                45.79777868838672
              ],
              [
                18.816056284514648,
                45.889117799714846
              ],
              [
                19.50673201998828,
                46.12713202090625
              ],
              [
                19.906415018645507,
                46.16173132510547
              ],
              [
                20.31473449191211,
                46.131507478669924
              ],
              [
                20.33922294100879,
                45.99261053653125
              ],
              [
                20.595047983733398,
                45.912471376375
              ],
              [
                20.68108848055957,
                45.805648408845705
              ],
              [
                20.772049936858398,
                45.789630495027346
              ],
              [
                20.73825934847949,
                45.629466615632815
              ],
              [
                20.784533533660156,
                45.576087556794924
              ],
              [
                20.758687052336914,
                45.536456666902346
              ],
              [
                21.07910636386035,
                45.324534975007815
              ],
              [
                21.32853606661914,
                45.26117666812305
              ],
              [
                21.466031107512695,
                45.2080150470293
              ],
              [
                21.49739364108203,
                45.14403494449024
              ],
              [
                21.411772760955078,
                45.08694418521289
              ],
              [
                21.355780634490234,
                45.021442018464846
              ],
              [
                21.438292536345703,
                44.99479254336719
              ],
              [
                21.54576781710742,
                44.95756109805469
              ],
              [
                21.424141916838867,
                44.92547186465625
              ],
              [
                21.34424880465625,
                44.88314779849414
              ],
              [
                21.367487940398437,
                44.80874975772266
              ],
              [
                21.47765258273242,
                44.79280050845508
              ],
              [
                21.583313974944335,
                44.79280050845508
              ],
              [
                21.591851267424804,
                44.707782350496096
              ],
              [
                21.858902964202148,
                44.68122061343555
              ],
              [
                21.94650939425586,
                44.618777833894534
              ],
              [
                22.13289741000293,
                44.511233888582034
              ],
              [
                22.199408564177734,
                44.56434591861133
              ],
              [
                22.29590133151172,
                44.691852174714846
              ],
              [
                22.409525904265625,
                44.75029715152149
              ],
              [
                22.691102060881835,
                44.638717256501955
              ],
              [
                22.742365870085937,
                44.58028372378711
              ],
              [
                22.58481505831836,
                44.58559759707813
              ],
              [
                22.440566095916015,
                44.49529989810352
              ],
              [
                22.505961451140625,
                44.34659918399219
              ],
              [
                22.69400123080371,
                44.26309164615039
              ],
              [
                22.546538385955078,
                44.107677064851565
              ],
              [
                22.373913797942382,
                43.93929251284961
              ],
              [
                22.293355021086914,
                43.803634248689455
              ],
              [
                22.31809142550586,
                43.68145712466602
              ],
              [
                22.91516402682422,
                43.176402650789065
              ],
              [
                22.927821192351562,
                43.0864330157793
              ],
              [
                22.792252573577148,
                42.95067175479297
              ],
              [
                22.44946578463672,
                42.800941072419924
              ],
              [
                22.338395151702148,
                42.66535147281055
              ],
              [
                22.33493140658496,
                42.43402823062305
              ],
              [
                22.32924178561328,
                42.34032019229297
              ],
              [
                22.326350245085937,
                42.292674623445315
              ],
              [
                22.38622191866992,
                42.196666322664065
              ],
              [
                22.686179194060546,
                42.0634723529375
              ],
              [
                22.847229990569335,
                41.89104422183399
              ],
              [
                22.948493036833984,
                41.679812990144534
              ],
              [
                22.946038279143554,
                41.455272279695315
              ],
              [
                22.899088892546875,
                41.32034262271289
              ],
              [
                22.920243296233398,
                41.230689607576174
              ],
              [
                22.69236663302539,
                41.158919893220705
              ],
              [
                22.452584299651367,
                41.048621736482424
              ],
              [
                22.172940287200195,
                41.07271536441211
              ],
              [
                22.01024535616992,
                41.09105261416797
              ],
              [
                21.84570029696582,
                41.01964148135547
              ],
              [
                21.66838744601367,
                40.82640799136524
              ],
              [
                21.39526084384082,
                40.76083334536914
              ],
              [
                21.031638178435546,
                40.726790986970705
              ],
              [
                20.7069750162041,
                41.00056418033008
              ],
              [
                20.572821650115234,
                41.301143251375
              ],
              [
                20.539563212004882,
                41.58959158511524
              ],
              [
                20.59892180880664,
                41.782420717195315
              ],
              [
                20.582966837493164,
                41.880714021638674
              ],
              [
                20.574980768767578,
                41.92991217227344
              ],
              [
                20.245184931365234,
                42.319800935701174
              ],
              [
                20.072997126189453,
                42.48589285464649
              ],
              [
                20.047053370085937,
                42.48752173037891
              ],
              [
                19.88456061801074,
                42.49771078677539
              ],
              [
                19.557698282805664,
                42.54732855410938
              ],
              [
                19.434618982878906,
                42.424571596101565
              ],
              [
                19.30881408175586,
                42.19264944644336
              ],
              [
                19.368660959807617,
                42.000342927888674
              ],
              [
                19.36771300753711,
                41.84637030215625
              ],
              [
                19.338465723601562,
                41.86202200503711
              ],
              [
                19.14303687533496,
                41.93209036441211
              ],
              [
                19.135544809905273,
                41.99954184146289
              ],
              [
                18.909899744597656,
                42.217792116121096
              ],
              [
                18.52864364108203,
                42.35274466128711
              ],
              [
                18.51358893832324,
                42.362140260652346
              ],
              [
                18.248711618987304,
                42.52743872256641
              ],
              [
                18.001368555632812,
                42.69445761294727
              ],
              [
                17.64638045748828,
                42.864600740388674
              ],
              [
                17.59567931613086,
                42.888900361970705
              ],
              [
                17.547980341521484,
                42.92011984439258
              ],
              [
                17.075087580291015,
                43.22274740786914
              ],
              [
                16.992262873259765,
                43.32271536441211
              ],
              [
                16.639813456145507,
                43.38973578067188
              ],
              [
                16.548510584441406,
                43.461314760164065
              ],
              [
                16.366747889128906,
                43.51302298159961
              ],
              [
                16.059407267180664,
                43.4334789142168
              ],
              [
                15.912835154143554,
                43.65224798770313
              ],
              [
                15.412318262664062,
                43.934756837800784
              ],
              [
                15.149468454924804,
                44.23992880435352
              ],
              [
                15.274405512419921,
                44.23661383242969
              ],
              [
                15.548222574797851,
                44.229346834138674
              ],
              [
                15.28594401797412,
                44.32891806216602
              ],
              [
                14.98910621127246,
                44.54002722354297
              ],
              [
                14.906961474028808,
                44.72332342715625
              ],
              [
                14.945532831755859,
                44.92658957095508
              ],
              [
                14.815391573516113,
                45.07786902041797
              ],
              [
                14.524585756865722,
                45.26628454776172
              ],
              [
                14.378762528596244,
                45.31481271291738
              ],
              [
                14.354488405791503,
                45.32289084048633
              ],
              [
                14.238621744719726,
                45.062354646638674
              ],
              [
                14.17460826357959,
                45.010387025789065
              ],
              [
                14.188512835112792,
                44.94254644961719
              ],
              [
                14.060400042144042,
                44.89470251651172
              ],
              [
                13.991256746855957,
                44.783099733308596
              ],
              [
                13.895102533904296,
                44.75918158145313
              ],
              [
                13.672059092131835,
                45.050357423738284
              ],
              [
                13.64358905276416,
                45.179088197664065
              ],
              [
                13.526890787688476,
                45.45431097598438
              ],
              [
                13.556276354399902,
                45.4596019610918
              ],
              [
                13.749085459319335,
                45.49433096499805
              ],
              [
                13.799984011260253,
                45.56637152285938
              ],
              [
                13.787731254125386,
                45.580685619798174
              ],
              [
                13.835831803687253,
                45.57881529869216
              ]
            ]
          ]
        ]
      }
    }
  ]
}